NORAD_CAT_ID,OBJECT_NAME,OBJECT_TYPE,EPOCH,MEAN_MOTION,ECCENTRICITY,INCLINATION,RA_OF_ASC_NODE,ARG_OF_PERICENTER,MEAN_ANOMALY,BSTAR,MEAN_MOTION_DOT,MEAN_MOTION_DDOT,TLE_LINE0,TLE_LINE1,TLE_LINE2,SEMIMAJOR_AXIS,PERIOD,APOGEE,PERIGEE,DECAYED
55951.0,STARLINK-5908,PAYLOAD,2023-07-01 06:00:00,15.5125673,0.0003342,70.0003,244.9789,266.78,107.1252,-0.00076332,-0.00044801,0.0,0 STARLINK-5908,1 55951U 23037AP  23182.25001157 -.00044801  00000-0 -76332-3 0  9990,2 55951  70.0003 244.9789 0003342 266.7800 107.1252 15.51256730 17079,6791.193,92.828,415.327,410.788,0.0
55951.0,STARLINK-5908,PAYLOAD,2023-07-01 22:00:00,15.51208431,0.0003388,69.9998,243.1561,266.7572,229.0047,0.00012849,7.385e-05,0.0,0 STARLINK-5908,1 55951U 23037AP  23182.91667824  .00007385  00000-0  12849-3 0  9999,2 55951  69.9998 243.1561 0003388 266.7572 229.0047 15.51208431 17176,6791.334,92.831,415.5,410.898,0.0
55951.0,STARLINK-5908,PAYLOAD,2023-07-02 04:00:00,15.51220524,0.0003372,69.9999,242.4727,263.8534,187.5722,0.00042216,0.00024707,0.0,0 STARLINK-5908,1 55951U 23037AP  23183.16667824  .00024707  00000-0  42216-3 0  9995,2 55951  69.9999 242.4727 0003372 263.8534 187.5722 15.51220524 17212,6791.298,92.83,415.453,410.873,0.0
55951.0,STARLINK-5908,PAYLOAD,2023-07-03 12:06:27,15.51222046,0.00034,69.9971,238.8149,267.8524,92.2273,-1.1656e-06,-2.33e-06,0.0,0 STARLINK-5908,1 55951U 23037AP  23184.50449074 -.00000233  00000-0 -11656-5 0  9995,2 55951  69.9971 238.8149 0003400 267.8524  92.2273 15.51222046 17421,6791.294,92.83,415.468,410.85,0.0
55951.0,STARLINK-5908,PAYLOAD,2023-07-03 21:23:36,15.51232594,0.0003324,69.9977,237.7576,266.8667,93.2139,-1.1052e-05,-8.14e-06,0.0,0 STARLINK-5908,1 55951U 23037AP  23184.89139183 -.00000814  00000-0 -11052-4 0  9998,2 55951  69.9977 237.7576 0003324 266.8667  93.2139 15.51232594 17488,6791.263,92.829,415.386,410.871,0.0
55951.0,STARLINK-5908,PAYLOAD,2023-07-05 07:27:01,15.50805328,0.0002907,69.9978,233.8807,235.3074,124.7838,-0.00090748,-0.00052333,0.0,0 STARLINK-5908,1 55951U 23037AP  23186.31043930 -.00052333  00000-0 -90748-3 0  9992,2 55951  69.9978 233.8807 0002907 235.3074 124.7838 15.50805328 17703,6792.51,92.855,416.35,412.401,0.0
55951.0,STARLINK-5908,PAYLOAD,2023-07-05 15:11:46,15.5053649,0.0002378,69.9995,233.0026,249.867,110.226,-0.0013554,-0.00077097,0.0,0 STARLINK-5908,1 55951U 23037AP  23186.63317218 -.00077097  00000-0 -13554-2 0  9993,2 55951  69.9995 233.0026 0002378 249.8670 110.2260 15.50536490 17756,6793.296,92.871,416.776,413.545,0.0
55951.0,STARLINK-5908,PAYLOAD,2023-07-06 00:29:35,15.50215713,0.0004416,69.9978,231.9438,232.1196,127.9591,-0.0020101,-0.00112509,0.0,0 STARLINK-5908,1 55951U 23037AP  23187.02055031 -.00112509  00000-0 -20101-2 0  9993,2 55951  69.9978 231.9438 0004416 232.1196 127.9591 15.50215713 17815,6794.233,92.89,419.098,413.097,0.0
55951.0,STARLINK-5908,PAYLOAD,2023-07-06 14:00:01,15.47919807,0.0003218,69.9992,230.4096,274.6925,343.8689,-0.018907,-0.00910276,0.0,0 STARLINK-5908,1 55951U 23037AP  23187.58335648 -.00910276  00000-0 -18907-1 0  9996,2 55951  69.9992 230.4096 0003218 274.6925 343.8689 15.47919807 17903,6800.949,93.028,425.003,420.626,0.0
55951.0,STARLINK-5908,PAYLOAD,2023-07-07 06:00:00,15.4663585,0.0003376,69.9999,228.5977,270.2081,100.6196,-0.020843,-0.00955666,0.0,0 STARLINK-5908,1 55951U 23037AP  23188.25001157 -.00955666  00000-0 -20843-1 0  9990,2 55951  69.9999 228.5977 0003376 270.2081 100.6196 15.46635850 18002,6804.713,93.105,428.875,424.28,0.0
55951.0,STARLINK-5908,PAYLOAD,2023-07-07 22:00:00,15.45276258,0.0003267,69.9996,226.7892,270.2494,209.7923,-0.019269,-0.00840412,0.0,0 STARLINK-5908,1 55951U 23037AP  23188.91667824 -.00840412  00000-0 -19269-1 0  9994,2 55951  69.9996 226.7892 0003267 270.2494 209.7923 15.45276258 18104,6808.703,93.187,432.793,428.344,0.0
55951.0,STARLINK-5908,PAYLOAD,2023-07-08 06:00:00,15.4467183,0.0003232,70.0,225.8863,270.2829,263.1776,-0.022027,-0.00944873,0.0,0 STARLINK-5908,1 55951U 23037AP  23189.25001157 -.00944873  00000-0 -22027-1 0  9995,2 55951  70.0000 225.8863 0003232 270.2829 263.1776 15.44671830 18154,6810.48,93.224,434.546,430.143,0.0
55951.0,STARLINK-5908,PAYLOAD,2023-07-08 22:00:00,15.43319549,0.0003314,70.0,224.0835,267.6941,10.2836,-0.020615,-0.00841055,0.0,0 STARLINK-5908,1 55951U 23037AP  23189.91667824 -.00841055  00000-0 -20615-1 0  9996,2 55951  70.0000 224.0835 0003314 267.6941  10.2836 15.43319549 18265,6814.457,93.305,438.581,434.064,0.0
55951.0,STARLINK-5908,PAYLOAD,2023-07-09 14:00:01,15.42060968,0.0003488,69.9997,222.2841,275.9296,103.4137,-0.023599,-0.00928189,0.0,0 STARLINK-5908,1 55951U 23037AP  23190.58334491 -.00928189  00000-0 -23599-1 0  9990,2 55951  69.9997 222.2841 0003488 275.9296 103.4137 15.42060968 18368,6818.165,93.382,442.408,437.651,0.0
55951.0,STARLINK-5908,PAYLOAD,2023-07-10 22:00:00,15.39410381,0.0003417,70.0001,218.696,267.5861,305.1403,-0.023615,-0.00856229,0.0,0 STARLINK-5908,1 55951U 23037AP  23191.91667824 -.00856229  00000-0 -23615-1 0  9991,2 55951  70.0001 218.6960 0003417 267.5861 305.1403 15.39410381 18579,6825.989,93.542,450.186,445.521,0.0
55951.0,STARLINK-5908,PAYLOAD,2023-07-11 06:00:00,15.3879562,0.0003467,70.0004,217.8012,268.9721,350.1379,-0.026577,-0.0093717,0.0,0 STARLINK-5908,1 55951U 23037AP  23192.25001157 -.00937170  00000-0 -26577-1 0  9995,2 55951  70.0004 217.8012 0003467 268.9721 350.1379 15.38795620 18625,6827.807,93.58,452.039,447.304,0.0
55951.0,STARLINK-5908,PAYLOAD,2023-07-12 06:00:00,15.36836635,0.000355,70.0003,215.122,270.185,123.3925,-0.028248,-0.0093469,0.0,0 STARLINK-5908,1 55951U 23037AP  23193.25001157 -.00934690  00000-0 -28248-1 0  9997,2 55951  70.0003 215.1220 0003550 270.1850 123.3925 15.36836635 18770,6833.608,93.699,457.899,453.047,0.0
55951.0,STARLINK-5908,PAYLOAD,2023-07-13 18:00:00,15.33888224,0.0003409,69.9995,211.1186,271.4269,130.6536,-0.030245,-0.00912325,0.0,0 STARLINK-5908,1 55951U 23037AP  23194.75001157 -.00912325  00000-0 -30245-1 0  9994,2 55951  69.9995 211.1186 0003409 271.4269 130.6536 15.33888224 19009,6842.362,93.879,466.559,461.894,0.0
55951.0,STARLINK-5908,PAYLOAD,2023-07-14 22:00:00,15.3158414,0.0003432,69.9992,208.0172,267.511,90.2291,-0.030279,-0.00854075,0.0,0 STARLINK-5908,1 55951U 23037AP  23195.91667824 -.00854075  00000-0 -30279-1 0  9996,2 55951  69.9992 208.0172 0003432 267.5110  90.2291 15.31584140 19189,6849.222,94.02,473.438,468.737,0.0
55951.0,STARLINK-5908,PAYLOAD,2023-07-15 06:00:02,15.30944922,0.0003387,69.9994,207.133,270.8672,123.9413,-0.032759,-0.00901607,0.0,0 STARLINK-5908,1 55951U 23037AP  23196.25002315 -.00901607  00000-0 -32759-1 0  9991,2 55951  69.9994 207.1330 0003387 270.8672 123.9413 15.30944922 19239,6851.129,94.06,475.314,470.673,0.0
55951.0,STARLINK-5908,PAYLOAD,2023-07-16 06:00:00,15.28982937,0.000323,69.9992,204.4855,271.1248,229.9269,-0.034431,-0.00892442,0.0,0 STARLINK-5908,1 55951U 23037AP  23197.25001157 -.00892442  00000-0 -34431-1 0  9990,2 55951  69.9992 204.4855 0003230 271.1248 229.9269 15.28982937 19386,6856.988,94.18,481.068,476.639,0.0
55951.0,STARLINK-5908,PAYLOAD,2023-07-17 02:00:01,15.27408361,0.0003299,69.9992,202.2852,267.4385,136.7985,-0.039492,-0.0098094,0.0,0 STARLINK-5908,1 55951U 23037AP  23198.08334491 -.00980940  00000-0 -39492-1 0  9995,2 55951  69.9992 202.2852 0003299 267.4385 136.7985 15.27408361 19512,6861.7,94.277,485.829,481.301,0.0
55951.0,STARLINK-5908,PAYLOAD,2023-07-17 14:00:01,15.26425801,0.0003155,69.9987,200.9676,270.0787,1.8033,-0.040725,-0.00981682,0.0,0 STARLINK-5908,1 55951U 23037AP  23198.58335648 -.00981682  00000-0 -40725-1 0  9990,2 55951  69.9987 200.9676 0003155 270.0787   1.8033 15.26425801 19593,6864.644,94.338,488.675,484.344,0.0
55951.0,STARLINK-5908,PAYLOAD,2023-07-18 06:00:00,15.25065393,0.00033,69.9992,199.214,271.987,60.553,-0.038208,-0.00880033,0.0,0 STARLINK-5908,1 55951U 23037AP  23199.25001157 -.00880033  00000-0 -38208-1 0  9991,2 55951  69.9992 199.2140 0003300 271.9870  60.5530 15.25065393 19690,6868.726,94.422,492.858,488.324,0.0
55951.0,STARLINK-5908,PAYLOAD,2023-07-18 22:00:00,15.2377871,0.0003245,69.9991,197.4639,267.1648,122.9329,-0.040248,-0.00901859,0.0,0 STARLINK-5908,1 55951U 23037AP  23199.91667824 -.00901859  00000-0 -40248-1 0  9990,2 55951  69.9991 197.4639 0003245 267.1648 122.9329 15.23778710 19792,6872.592,94.502,496.687,492.227,0.0
55951.0,STARLINK-5908,PAYLOAD,2023-07-19 14:00:01,15.22507002,0.0003131,69.9991,195.7171,273.7322,170.803,-0.045415,-0.00973998,0.0,0 STARLINK-5908,1 55951U 23037AP  23200.58334491 -.00973998  00000-0 -45415-1 0  9991,2 55951  69.9991 195.7171 0003131 273.7322 170.8030 15.22507002 19895,6876.419,94.581,500.437,496.131,0.0
55951.0,STARLINK-5908,PAYLOAD,2023-07-20 06:00:00,15.21148912,0.0003111,69.9996,193.9742,274.1026,221.7644,-0.042607,-0.00884441,0.0,0 STARLINK-5908,1 55951U 23037AP  23201.25001157 -.00884441  00000-0 -42607-1 0  9990,2 55951  69.9996 193.9742 0003111 274.1026 221.7644 15.21148912 19996,6880.511,94.665,504.516,500.235,0.0
55951.0,STARLINK-5908,PAYLOAD,2023-07-20 22:00:00,15.19882108,0.0002978,69.9997,192.2346,264.0367,279.9937,-0.046536,-0.00927462,0.0,0 STARLINK-5908,1 55951U 23037AP  23201.91667824 -.00927462  00000-0 -46536-1 0  9998,2 55951  69.9997 192.2346 0002978 264.0367 279.9937 15.19882108 20109,6884.334,94.744,508.249,504.148,0.0
55951.0,STARLINK-5908,PAYLOAD,2023-07-21 22:00:00,15.17929108,0.0003083,70.0,189.6318,262.853,347.5859,-0.049658,-0.00934613,0.0,0 STARLINK-5908,1 55951U 23037AP  23202.91667824 -.00934613  00000-0 -49658-1 0  9993,2 55951  70.0000 189.6318 0003083 262.8530 347.5859 15.17929108 20253,6890.237,94.866,514.227,509.978,0.0
55951.0,STARLINK-5908,PAYLOAD,2023-07-24 14:00:01,15.12706729,0.0003075,69.9998,182.7293,272.1062,121.0117,-0.058771,-0.00952024,0.0,0 STARLINK-5908,1 55951U 23037AP  23205.58334491 -.00952024  00000-0 -58771-1 0  9992,2 55951  69.9998 182.7293 0003075 272.1062 121.0117 15.12706729  2245,6906.087,95.194,530.075,525.828,0.0
